{
    "links": {
        "self": "http://www.neowsapp.com/rest/v1/neo/3732687?api_key=iIulBulltgU6a56xZRHN4H3l9WmuAYTsLGpBGhQ2"
    },
    "id": "3732687",
    "neo_reference_id": "3732687",
    "name": "(2015 PE312)",
    "designation": "2015 PE312",
    "nasa_jpl_url": "http://ssd.jpl.nasa.gov/sbdb.cgi?sstr=3732687",
    "absolute_magnitude_h": 23.256,
    "estimated_diameter": {
        "kilometers": {
            "estimated_diameter_min": 0.0593410158,
            "estimated_diameter_max": 0.1326905453
        },
        "meters": {
            "estimated_diameter_min": 59.3410158418,
            "estimated_diameter_max": 132.6905452761
        },
        "miles": {
            "estimated_diameter_min": 0.0368727864,
            "estimated_diameter_max": 0.0824500568
        },
        "feet": {
            "estimated_diameter_min": 194.6883784143,
            "estimated_diameter_max": 435.3364485636
        }
    },
    "is_potentially_hazardous_asteroid": false,
    "close_approach_data": [
        {
            "close_approach_date": "2015-08-18",
            "close_approach_date_full": "2015-Aug-18 13:47",
            "epoch_date_close_approach": 1439905620000,
            "relative_velocity": {
                "kilometers_per_second": "15.0981949024",
                "kilometers_per_hour": "54353.5016486036",
                "miles_per_hour": "33773.152177156"
            },
            "miss_distance": {
                "astronomical": "0.0286371899",
                "lunar": "11.1398668711",
                "kilometers": "4284062.611825513",
                "miles": "2661993.0687295594"
            },
            "orbiting_body": "Earth"
        },
        {
            "close_approach_date": "2015-10-11",
            "close_approach_date_full": "2015-Oct-11 00:16",
            "epoch_date_close_approach": 1444522560000,
            "relative_velocity": {
                "kilometers_per_second": "9.3190177112",
                "kilometers_per_hour": "33548.4637602826",
                "miles_per_hour": "20845.71071816"
            },
            "miss_distance": {
                "astronomical": "0.1159247126",
                "lunar": "45.0947132014",
                "kilometers": "17342090.085322162",
                "miles": "10775875.0950513556"
            },
            "orbiting_body": "Venus"
        }
    ],
    "orbital_data": {
        "orbit_id": "6",
        "orbit_determination_date": "2020-03-02 04:55:29",
        "first_observation_date": "2015-08-10",
        "last_observation_date": "2015-08-12",
        "data_arc_in_days": 2,
        "observations_used": 9,
        "orbit_uncertainty": "9",
        "minimum_orbit_intersection": ".0219103",
        "jupiter_tisserand_invariant": "3.998",
        "epoch_osculation": "2457246.5",
        "eccentricity": ".5475641860147503",
        "semi_major_axis": "1.707312363374134",
        "inclination": "7.464346502600096",
        "ascending_node_longitude": "137.334903751629",
        "orbital_period": "814.8316782530284",
        "perihelion_distance": ".7724492588502568",
        "perihelion_argument": "260.6349863090858",
        "aphelion_distance": "2.642175467898011",
        "perihelion_time": "2457301.597770113205",
        "mean_anomaly": "335.6573071836385",
        "mean_motion": ".4418090381216251",
        "equinox": "J2000",
        "orbit_class": {
            "orbit_class_type": "APO",
            "orbit_class_description": "Near-Earth asteroid orbits which cross the Earth’s orbit similar to that of 1862 Apollo",
            "orbit_class_range": "a (semi-major axis) > 1.0 AU; q (perihelion) < 1.017 AU"
        }
    },
    "is_sentry_object": false
}